     2              NAVIGATION DATA                         RINEX VERSION / TYPE
CCRINEXN V1.6.0 UX  CDDIS               09-SEP-08 02:51     PGM / RUN BY / DATE 
IGS BROADCAST EPHEMERIS FILE                                COMMENT             
    0.6519E-08  0.1490E-07 -0.5960E-07 -0.1192E-06          ION ALPHA           
    0.7782E+05  0.3277E+05 -0.6554E+05 -0.1966E+06          ION BETA            
   -0.931322574616E-09 0.266453525910E-14   147456     1496 DELTA-UTC: A0,A1,T,W
    14                                                      LEAP SECONDS        
                                                            END OF HEADER       
31 08  9  8  0  0  0.0-0.251112505794E-04 0.000000000000E+00 0.000000000000E+00
    0.210000000000E+02-0.555000000000E+02 0.407302680472E-08 0.158492677980E+01
   -0.291876494884E-05 0.667021679692E-02 0.573880970478E-05 0.515353889847E+04
    0.864000000000E+05 0.147148966789E-06 0.109716891831E+01-0.109896063805E-06
    0.969068834635E+00 0.270343750000E+03-0.123953678789E+01-0.790390064509E-08
    0.125719518129E-09 0.100000000000E+01 0.149600000000E+04 0.000000000000E+00
    0.200000000000E+01 0.000000000000E+00-0.130385160446E-07 0.210000000000E+02
    0.839580000000E+05 0.400000000000E+01 0.000000000000E+00 0.000000000000E+00
32 08  9  8  0  0  0.0 0.315822660923E-03 0.795807864051E-12 0.000000000000E+00
    0.100000000000E+02 0.669375000000E+02 0.429482175371E-08 0.261471078310E+01
    0.345520675182E-05 0.139494625619E-01 0.555068254471E-05 0.515377734375E+04
    0.864000000000E+05 0.221654772759E-06-0.908526875471E+00 0.149011611938E-07
    0.967599029138E+00 0.271406250000E+03-0.128979377757E+01-0.776353766822E-08
   -0.285726187357E-09 0.100000000000E+01 0.149600000000E+04 0.000000000000E+00
    0.200000000000E+01 0.000000000000E+00-0.325962901115E-08 0.100000000000E+02
    0.792180000000E+05 0.400000000000E+01 0.000000000000E+00 0.000000000000E+00
 5 08  9  8  1 59 44.0 0.835815444589E-04-0.217482920562E-09 0.277555756156E-16
    0.220000000000E+02-0.525000000000E+02 0.481770067657E-08 0.740037235761E+00
   -0.285916030407E-05 0.927017081995E-02 0.785104930401E-05 0.515369772148E+04
    0.935840000000E+05-0.108033418655E-06 0.205516412286E+01 0.130385160446E-07
    0.943441558608E+00 0.219843750000E+03 0.127001859518E+01-0.825534386821E-08
    0.216080429189E-09 0.100000000000E+01 0.149600000000E+04 0.000000000000E+00
    0.200000000000E+01 0.630000000000E+02-0.419095158577E-08 0.220000000000E+02
    0.906480000000E+05 0.400000000000E+01 0.000000000000E+00 0.000000000000E+00
 8 08  9  8  1 59 44.0-0.169064849615E-03-0.159161572810E-11 0.000000000000E+00
    0.700000000000E+01-0.671250000000E+02 0.377872882779E-08 0.220148668425E+01
   -0.331178307533E-05 0.105425734073E-01 0.655278563499E-05 0.515372614479E+04
    0.935840000000E+05-0.353902578354E-07 0.115542366504E+01 0.149011611938E-06
    0.984754356389E+00 0.267125000000E+03 0.290283013912E+01-0.770317801114E-08
   -0.678599694973E-10 0.100000000000E+01 0.149600000000E+04 0.000000000000E+00
    0.200000000000E+01 0.000000000000E+00-0.372529029846E-08 0.700000000000E+01
    0.864180000000E+05 0.400000000000E+01 0.000000000000E+00 0.000000000000E+00
 9 08  9  8  1 59 44.0 0.138552859425E-04 0.181898940355E-11 0.000000000000E+00
    0.400000000000E+01-0.757500000000E+02 0.397445143463E-08 0.183701911853E+01
   -0.430829823017E-05 0.201612978708E-01 0.519305467606E-05 0.515366824150E+04
    0.935840000000E+05 0.173225998878E-06 0.106454522194E+01-0.435858964920E-06
    0.972629174938E+00 0.285468750000E+03 0.143973450549E+01-0.783604026111E-08
    0.403588239217E-10 0.100000000000E+01 0.149600000000E+04 0.000000000000E+00
    0.200000000000E+01 0.000000000000E+00-0.558793544769E-08 0.400000000000E+01
    0.871680000000E+05 0.400000000000E+01 0.000000000000E+00 0.000000000000E+00
28 08  9  8  1 59 44.0-0.223321840167E-04-0.227373675443E-12 0.000000000000E+00
    0.140000000000E+02-0.407500000000E+02 0.443339895458E-08-0.240215276970E+00
   -0.204518437386E-05 0.139763666084E-01 0.812113285065E-05 0.515363536453E+04
    0.935840000000E+05-0.689178705216E-07 0.217601867904E+01 0.238418579102E-06
    0.964454646184E+00 0.228718750000E+03-0.209305242838E+01-0.813855328913E-08
    0.353586156854E-09 0.100000000000E+01 0.149600000000E+04 0.000000000000E+00
    0.200000000000E+01 0.000000000000E+00-0.102445483208E-07 0.140000000000E+02
    0.920760000000E+05 0.400000000000E+01 0.000000000000E+00 0.000000000000E+00
 2 08  9  8  2  0  0.0 0.189050100744E-03-0.284217094304E-11 0.000000000000E+00
    0.360000000000E+02 0.403125000000E+02 0.507413992972E-08-0.165708334445E+01
    0.206939876080E-05 0.874232256319E-02 0.809691846371E-05 0.515377213097E+04
    0.936000000000E+05-0.130385160446E-06-0.205135789822E+01-0.214204192162E-06
    0.942601671006E+00 0.215750000000E+03 0.263767611729E+01-0.821641367518E-08
   -0.172507185617E-09 0.100000000000E+01 0.149600000000E+04 0.000000000000E+00
    0.200000000000E+01 0.000000000000E+00-0.172294676304E-07 0.360000000000E+02
    0.864180000000E+05 0.400000000000E+01 0.000000000000E+00 0.000000000000E+00
 3 08  9  8  2  0  0.0 0.280469190329E-03 0.511590769747E-11 0.000000000000E+00
    0.940000000000E+02-0.105000000000E+02 0.542486882470E-08-0.198863014487E+01
   -0.782310962677E-06 0.111262692371E-01 0.696629285812E-05 0.515369374466E+04
    0.936000000000E+05 0.139698386192E-06 0.308717918156E+01-0.745058059692E-07
    0.926390187778E+00 0.222000000000E+03 0.845489315578E+00-0.823105714228E-08
    0.292155026572E-09 0.100000000000E+01 0.149600000000E+04 0.000000000000E+00
    0.280000000000E+01 0.000000000000E+00-0.419095158577E-08 0.940000000000E+02
    0.864000000000E+05 0.000000000000E+00 0.000000000000E+00 0.000000000000E+00
 4 08  9  8  2  0  0.0-0.164957717061E-03-0.108002495835E-10 0.000000000000E+00
    0.120000000000E+02 0.415625000000E+02 0.514557147656E-08 0.114834126607E+01
    0.237673521042E-05 0.827077659778E-02 0.773742794991E-05 0.515357956696E+04
    0.936000000000E+05 0.614672899246E-07-0.203263293448E+01 0.856816768646E-07
    0.941872995899E+00 0.219968750000E+03 0.393924331181E+00-0.827534470132E-08
   -0.311084386485E-09 0.100000000000E+01 0.149600000000E+04 0.000000000000E+00
    0.200000000000E+01 0.000000000000E+00-0.605359673500E-08 0.120000000000E+02
    0.864180000000E+05 0.400000000000E+01 0.000000000000E+00 0.000000000000E+00
 5 08  9  8  2  0  0.0 0.835671089590E-04-0.217937667912E-09 0.000000000000E+00
    0.150000000000E+02-0.525000000000E+02 0.481770067657E-08 0.742371441516E+00
   -0.285916030407E-05 0.927015894558E-02 0.785104930401E-05 0.515369772530E+04
    0.936000000000E+05-0.108033418655E-06 0.205516399413E+01 0.130385160446E-07
    0.943441560071E+00 0.219843750000E+03 0.127001809340E+01-0.825534386821E-08
    0.216080429189E-09 0.100000000000E+01 0.149600000000E+04 0.000000000000E+00
    0.200000000000E+01 0.630000000000E+02-0.419095158577E-08 0.150000000000E+02
    0.864180000000E+05 0.400000000000E+01 0.000000000000E+00 0.000000000000E+00
 6 08  9  8  2  0  0.0 0.167117919773E-03-0.909494701773E-12 0.000000000000E+00
    0.830000000000E+02-0.781250000000E+01 0.535986611708E-08 0.613008025673E+00
   -0.517815351486E-06 0.574724213220E-02 0.742450356483E-05 0.515371253014E+04
    0.936000000000E+05-0.819563865662E-07-0.313057583008E+01-0.204890966415E-07
    0.933933518583E+00 0.222750000000E+03-0.158294270447E+01-0.840785022071E-08
    0.138220043134E-09 0.100000000000E+01 0.149600000000E+04 0.000000000000E+00
    0.280000000000E+01 0.000000000000E+00-0.465661287308E-08 0.830000000000E+02
    0.864000000000E+05 0.000000000000E+00 0.000000000000E+00 0.000000000000E+00
 7 08  9  8  2  0  0.0 0.155614688993E-04 0.284217094304E-11 0.000000000000E+00
    0.400000000000E+02-0.547500000000E+02 0.432089426830E-08 0.298810281326E+01
   -0.283680856228E-05 0.218247051816E-02 0.599026679993E-05 0.515369942284E+04
    0.936000000000E+05-0.111758708954E-07 0.110047765426E+01 0.149011611938E-07
    0.963604285552E+00 0.265250000000E+03 0.271060730585E+01-0.799461872224E-08
    0.342871424828E-10 0.100000000000E+01 0.149600000000E+04 0.000000000000E+00
    0.200000000000E+01 0.000000000000E+00-0.107102096081E-07 0.400000000000E+02
    0.868500000000E+05 0.000000000000E+00 0.000000000000E+00 0.000000000000E+00
 9 08  9  8  2  0  0.0 0.138552859425E-04 0.181898940355E-11 0.000000000000E+00
    0.730000000000E+02-0.757500000000E+02 0.397445143463E-08 0.183935279764E+01
   -0.430829823017E-05 0.201612949604E-01 0.519305467606E-05 0.515366824341E+04
    0.936000000000E+05 0.173225998878E-06 0.106454508296E+01-0.435858964920E-06
    0.972629201270E+00 0.285468750000E+03 0.143973454060E+01-0.783604026111E-08
    0.403588239217E-10 0.100000000000E+01 0.149600000000E+04 0.000000000000E+00
    0.400000000000E+01 0.000000000000E+00-0.558793544769E-08 0.730000000000E+02
    0.864180000000E+05 0.400000000000E+01 0.000000000000E+00 0.000000000000E+00
10 08  9  8  2  0  0.0-0.460911542177E-05-0.341060513165E-12 0.000000000000E+00
    0.730000000000E+02 0.734375000000E+02 0.447911514455E-08-0.737587044010E+00
    0.379979610443E-05 0.800462241750E-02 0.624731183052E-05 0.515370304680E+04
    0.936000000000E+05 0.132247805595E-06-0.968341714611E+00 0.100582838058E-06
    0.962005455069E+00 0.260343750000E+03 0.556408131878E+00-0.811033782812E-08
   -0.202508435289E-09 0.100000000000E+01 0.149600000000E+04 0.000000000000E+00
    0.240000000000E+01 0.000000000000E+00-0.232830643654E-08 0.730000000000E+02
    0.864060000000E+05 0.400000000000E+01 0.000000000000E+00 0.000000000000E+00
